{
  "type": "FeatureCollection",
  "features": [
    {
      "type": "Feature",
      "properties": {
        "norad_id": 30996,
        "name": "FENGYUN 1C DEB",
        "group": "fengyun-1c-debris",
        "lat": -19.151752621760334,
        "lon": -115.52728446308478,
        "alt_km": 744.6956933698557,
        "timestamp": "2025-12-02T17:49:12.307838+00:00",
        "meta_object_name": "FENGYUN 1C DEB",
        "meta_object_id": "1999-025BCN",
        "meta_epoch": "2025-12-02T05:16:06.541824",
        "meta_mean_motion": 14.35313224,
        "meta_eccentricity": 0.0050873,
        "meta_inclination": 98.943,
        "meta_ra_of_asc_node": 240.7961,
        "meta_arg_of_pericenter": 322.963,
        "meta_mean_anomaly": 196.772,
        "meta_ephemeris_type": 0,
        "meta_classification_type": "U",
        "meta_norad_cat_id": 30996,
        "meta_element_set_no": 999,
        "meta_rev_at_epoch": 97412,
        "meta_bstar": 0.0013216,
        "meta_mean_motion_dot": 3.797e-05,
        "meta_mean_motion_ddot": 0,
        "tle_line1": "1 30996U 99025BCN 25336.21952016  .00003797  00000+0  13216-2 0  9997",
        "tle_line2": "2 30996  98.9430 240.7961 0050873 322.9630 196.7720 14.35313224974122"
      },
      "geometry": {
        "type": "Point",
        "coordinates": [
          -115.52728446308478,
          -19.151752621760334
        ]
      }
    },
    {
      "type": "Feature",
      "properties": {
        "norad_id": 30998,
        "name": "FENGYUN 1C DEB",
        "group": "fengyun-1c-debris",
        "lat": -81.12951019419891,
        "lon": 154.85550911429567,
        "alt_km": 735.0165982389572,
        "timestamp": "2025-12-02T17:49:12.307847+00:00",
        "meta_object_name": "FENGYUN 1C DEB",
        "meta_object_id": "1999-025BCQ",
        "meta_epoch": "2025-12-01T04:13:08.858208",
        "meta_mean_motion": 14.47554465,
        "meta_eccentricity": 0.00125921,
        "meta_inclination": 98.8307,
        "meta_ra_of_asc_node": 58.1545,
        "meta_arg_of_pericenter": 224.6637,
        "meta_mean_anomaly": 164.6449,
        "meta_ephemeris_type": 0,
        "meta_classification_type": "U",
        "meta_norad_cat_id": 30998,
        "meta_element_set_no": 999,
        "meta_rev_at_epoch": 97023,
        "meta_bstar": 0.0026975063,
        "meta_mean_motion_dot": 9.9e-05,
        "meta_mean_motion_ddot": 0,
        "tle_line1": "1 30998U 99025BCQ 25335.17579697  .00009900  00000+0  26975-2 0  9991",
        "tle_line2": "2 30998  98.8307  58.1545 0012592 224.6637 164.6449 14.47554465970233"
      },
      "geometry": {
        "type": "Point",
        "coordinates": [
          154.85550911429567,
          -81.12951019419891
        ]
      }
    },
    {
      "type": "Feature",
      "properties": {
        "norad_id": 30999,
        "name": "FENGYUN 1C DEB",
        "group": "fengyun-1c-debris",
        "lat": 1.7576375803073228,
        "lon": 149.25898237197592,
        "alt_km": 621.3997192534462,
        "timestamp": "2025-12-02T17:49:12.307857+00:00",
        "meta_object_name": "FENGYUN 1C DEB",
        "meta_object_id": "1999-025BCR",
        "meta_epoch": "2025-12-02T04:38:20.179104",
        "meta_mean_motion": 14.58327263,
        "meta_eccentricity": 0.0113563,
        "meta_inclination": 99.0912,
        "meta_ra_of_asc_node": 148.9403,
        "meta_arg_of_pericenter": 9.9505,
        "meta_mean_anomaly": 350.3903,
        "meta_ephemeris_type": 0,
        "meta_classification_type": "U",
        "meta_norad_cat_id": 30999,
        "meta_element_set_no": 999,
        "meta_rev_at_epoch": 98677,
        "meta_bstar": 0.000626,
        "meta_mean_motion_dot": 3.106e-05,
        "meta_mean_motion_ddot": 0,
        "tle_line1": "1 30999U 99025BCR 25336.19328911  .00003106  00000+0  62600-3 0  9994",
        "tle_line2": "2 30999  99.0912 148.9403 0113563   9.9505 350.3903 14.58327263986779"
      },
      "geometry": {
        "type": "Point",
        "coordinates": [
          149.25898237197592,
          1.7576375803073228
        ]
      }
    },
    {
      "type": "Feature",
      "properties": {
        "norad_id": 31000,
        "name": "FENGYUN 1C DEB",
        "group": "fengyun-1c-debris",
        "lat": -45.20616715017047,
        "lon": 14.670399014111146,
        "alt_km": 959.8060082071224,
        "timestamp": "2025-12-02T17:49:12.307867+00:00",
        "meta_object_name": "FENGYUN 1C DEB",
        "meta_object_id": "1999-025BCS",
        "meta_epoch": "2025-12-01T13:46:50.849760",
        "meta_mean_motion": 14.09603647,
        "meta_eccentricity": 0.01657955,
        "meta_inclination": 97.5675,
        "meta_ra_of_asc_node": 5.9923,
        "meta_arg_of_pericenter": 98.6944,
        "meta_mean_anomaly": 51.6514,
        "meta_ephemeris_type": 0,
        "meta_classification_type": "U",
        "meta_norad_cat_id": 31000,
        "meta_element_set_no": 999,
        "meta_rev_at_epoch": 69799,
        "meta_bstar": 0.00054907717,
        "meta_mean_motion_dot": 1.06e-05,
        "meta_mean_motion_ddot": 0,
        "tle_line1": "1 31000U 99025BCS 25335.57419965  .00001060  00000+0  54908-3 0  9998",
        "tle_line2": "2 31000  97.5675   5.9923 0165795  98.6944  51.6514 14.09603647697998"
      },
      "geometry": {
        "type": "Point",
        "coordinates": [
          14.670399014111146,
          -45.20616715017047
        ]
      }
    },
    {
      "type": "Feature",
      "properties": {
        "norad_id": 31001,
        "name": "FENGYUN 1C DEB",
        "group": "fengyun-1c-debris",
        "lat": -30.941537782047735,
        "lon": -145.62926220138314,
        "alt_km": 842.0095164730355,
        "timestamp": "2025-12-02T17:49:12.307877+00:00",
        "meta_object_name": "FENGYUN 1C DEB",
        "meta_object_id": "1999-025BCT",
        "meta_epoch": "2025-11-30T14:22:23.212128",
        "meta_mean_motion": 14.42802807,
        "meta_eccentricity": 0.0146375,
        "meta_inclination": 99.2732,
        "meta_ra_of_asc_node": 206.4193,
        "meta_arg_of_pericenter": 188.229,
        "meta_mean_anomaly": 171.6494,
        "meta_ephemeris_type": 0,
        "meta_classification_type": "U",
        "meta_norad_cat_id": 31001,
        "meta_element_set_no": 999,
        "meta_rev_at_epoch": 98031,
        "meta_bstar": 0.00045440379,
        "meta_mean_motion_dot": 1.667e-05,
        "meta_mean_motion_ddot": 0,
        "tle_line1": "1 31001U 99025BCT 25334.59887977  .00001667  00000+0  45440-3 0  9996",
        "tle_line2": "2 31001  99.2732 206.4193 0146375 188.2290 171.6494 14.42802807980319"
      },
      "geometry": {
        "type": "Point",
        "coordinates": [
          -145.62926220138314,
          -30.941537782047735
        ]
      }
    },
    {
      "type": "Feature",
      "properties": {
        "norad_id": 31002,
        "name": "FENGYUN 1C DEB",
        "group": "fengyun-1c-debris",
        "lat": 38.311184133925565,
        "lon": 176.10123587659774,
        "alt_km": 935.5587483003301,
        "timestamp": "2025-12-02T17:49:12.307887+00:00",
        "meta_object_name": "FENGYUN 1C DEB",
        "meta_object_id": "1999-025BCU",
        "meta_epoch": "2025-12-02T00:15:05.600736",
        "meta_mean_motion": 13.99189022,
        "meta_eccentricity": 0.009963,
        "meta_inclination": 98.8871,
        "meta_ra_of_asc_node": 348.2902,
        "meta_arg_of_pericenter": 17.3275,
        "meta_mean_anomaly": 37.5652,
        "meta_ephemeris_type": 0,
        "meta_classification_type": "U",
        "meta_norad_cat_id": 31002,
        "meta_element_set_no": 999,
        "meta_rev_at_epoch": 95455,
        "meta_bstar": 0.00027406956,
        "meta_mean_motion_dot": 3.72e-06,
        "meta_mean_motion_ddot": 0,
        "tle_line1": "1 31002U 99025BCU 25336.01048149  .00000372  00000+0  27407-3 0  9991",
        "tle_line2": "2 31002  98.8871 348.2902 0099630  17.3275  37.5652 13.99189022954559"
      },
      "geometry": {
        "type": "Point",
        "coordinates": [
          176.10123587659774,
          38.311184133925565
        ]
      }
    },
    {
      "type": "Feature",
      "properties": {
        "norad_id": 31003,
        "name": "FENGYUN 1C DEB",
        "group": "fengyun-1c-debris",
        "lat": -57.9514905946328,
        "lon": 67.86779654059241,
        "alt_km": 801.5133068413643,
        "timestamp": "2025-12-02T17:49:12.307897+00:00",
        "meta_object_name": "FENGYUN 1C DEB",
        "meta_object_id": "1999-025BCV",
        "meta_epoch": "2025-12-01T05:00:44.683200",
        "meta_mean_motion": 14.24577649,
        "meta_eccentricity": 0.0040932,
        "meta_inclination": 98.8448,
        "meta_ra_of_asc_node": 51.9222,
        "meta_arg_of_pericenter": 246.8328,
        "meta_mean_anomaly": 112.8536,
        "meta_ephemeris_type": 0,
        "meta_classification_type": "U",
        "meta_norad_cat_id": 31003,
        "meta_element_set_no": 999,
        "meta_rev_at_epoch": 96345,
        "meta_bstar": 0.0016594,
        "meta_mean_motion_dot": 3.842e-05,
        "meta_mean_motion_ddot": 0,
        "tle_line1": "1 31003U 99025BCV 25335.20885050  .00003842  00000+0  16594-2 0  9991",
        "tle_line2": "2 31003  98.8448  51.9222 0040932 246.8328 112.8536 14.24577649963454"
      },
      "geometry": {
        "type": "Point",
        "coordinates": [
          67.86779654059241,
          -57.9514905946328
        ]
      }
    }
  ]
}